NORAD_CAT_ID,OBJECT_NAME,OBJECT_TYPE,EPOCH,MEAN_MOTION,ECCENTRICITY,INCLINATION,RA_OF_ASC_NODE,ARG_OF_PERICENTER,MEAN_ANOMALY,BSTAR,MEAN_MOTION_DOT,MEAN_MOTION_DDOT,TLE_LINE0,TLE_LINE1,TLE_LINE2,SEMIMAJOR_AXIS,PERIOD,APOGEE,PERIGEE,DECAYED
53147.0,STARLINK-4094,PAYLOAD,2022-08-31 22:00:00,15.262782500000002,0.0001565999999999,53.2175,186.5409,51.1275,115.954,-0.051309,-0.01236708,0.0,0 STARLINK-4094,1 53147U 22083R   22243.91667824 -.01236708  00000-0 -51309-1 0  9999,2 53147  53.2175 186.5409 0001566  51.1275 115.9540 15.26278250  1304,6865.087,94.347,488.027,485.877,0.0
53147.0,STARLINK-4094,PAYLOAD,2022-09-01 04:00:01,15.25600263,0.0001647,53.2176,185.3948,47.0525,54.1951,-0.047911,-0.01124355,0.0,0 STARLINK-4094,1 53147U 22083R   22244.16668981 -.01124355  00000-0 -47911-1 0  9990,2 53147  53.2176 185.3948 0001647  47.0525  54.1951 15.25600263  7771,6867.121,94.389,490.117,487.855,0.0
53147.0,STARLINK-4094,PAYLOAD,2022-09-01 14:00:01,15.24636209,0.0001626,53.2176,183.4781,47.6928,182.4349,-0.051796,-0.01191751,0.0,0 STARLINK-4094,1 53147U 22083R   22244.58335648 -.01191751  00000-0 -51796-1 0  9997,2 53147  53.2176 183.4781 0001626  47.6928 182.4349 15.24636209  1302,6870.015,94.449,492.997,490.763,0.0
53147.0,STARLINK-4094,PAYLOAD,2022-09-01 22:00:00,15.2379144,0.0001609,53.2178,181.9509,49.3106,210.8074,-0.05037,-0.01134527,0.0,0 STARLINK-4094,1 53147U 22083R   22244.91667824 -.01134527  00000-0 -50370-1 0  9993,2 53147  53.2178 181.9509 0001609  49.3106 210.8074 15.23791440  7881,6872.554,94.501,495.525,493.31300000000016,0.0
53147.0,STARLINK-4094,PAYLOAD,2022-09-02 14:00:01,15.2218625,0.0001409,53.2176,178.8984,51.102,266.1891,-0.052915,-0.0113599999999999,0.0,0 STARLINK-4094,1 53147U 22083R   22245.58334491 -.01136000  00000-0 -52915-1 0  9993,2 53147  53.2176 178.8984 0001409  51.1020 266.1891 15.22186250  1303,6877.385,94.601,500.219,498.281,0.0
53147.0,STARLINK-4094,PAYLOAD,2022-09-02 20:00:01,15.21583529,0.0001615,53.2177,177.7556,51.5842,196.1516,-0.053758,-0.01133892,0.0,0 STARLINK-4094,1 53147U 22083R   22245.83334491 -.01133892  00000-0 -53758-1 0  9993,2 53147  53.2177 177.7556 0001615  51.5842 196.1516 15.21583529  8023,6879.201,94.638,502.177,499.955,0.0
53147.0,STARLINK-4094,PAYLOAD,2022-09-02 22:00:01,15.21439005,0.0001286999999999,53.2174,177.3734,58.3777,286.0851,-0.0577159999999999,-0.01205864,0.0,0 STARLINK-4094,1 53147U 22083R   22245.91668981 -.01205864  00000-0 -57716-1 0  9993,2 53147  53.2174 177.3734 0001287  58.3777 286.0851 15.21439005  1305,6879.636,94.647,502.387,500.616,0.0
53147.0,STARLINK-4094,PAYLOAD,2022-09-03 14:00:01,15.19776323,0.0001462,53.2176,174.3341,46.0391,349.7759,-0.056708,-0.01134146,0.0,0 STARLINK-4094,1 53147U 22083R   22246.58334491 -.01134146  00000-0 -56708-1 0  9997,2 53147  53.2176 174.3341 0001462  46.0391 349.7759 15.19776323  1307,6884.653,94.751,507.525,505.512,0.0
53147.0,STARLINK-4094,PAYLOAD,2022-09-03 22:00:00,15.18974887,0.0001585,53.2177,172.817,44.6008,15.4578,-0.0581559999999999,-0.01136077,0.0,0 STARLINK-4094,1 53147U 22083R   22246.91667824 -.01136077  00000-0 -58156-1 0  9997,2 53147  53.2177 172.8170 0001585  44.6008  15.4578 15.18974887  1306,6887.074000000001,94.801,510.031,507.848,0.0
53147.0,STARLINK-4094,PAYLOAD,2022-09-04 12:00:00,15.17569872,0.0001447,53.2175,170.1654,47.4377,322.728,-0.060608,-0.01136618,0.0,0 STARLINK-4094,1 53147U 22083R   22247.50001157 -.01136618  00000-0 -60608-1 0  9990,2 53147  53.2175 170.1654 0001447  47.4377 322.7280 15.17569872  8280,6891.325,94.889,514.187,512.192,0.0
53147.0,STARLINK-4094,PAYLOAD,2022-09-04 14:00:01,15.17394179,0.0001659,53.2173,169.7852,45.2575,60.4485,-0.062897,-0.01170725,0.0,0 STARLINK-4094,1 53147U 22083R   22247.58335648 -.01170725  00000-0 -62897-1 0  9992,2 53147  53.2173 169.7852 0001659  45.2575  60.4485 15.17394179  1308,6891.857,94.9,514.865,512.578,0.0
53147.0,STARLINK-4094,PAYLOAD,2022-09-04 20:00:01,15.16765304,0.0001541,53.2177,168.6527,45.5164,346.2412,-0.061797,-0.01132686,0.0,0 STARLINK-4094,1 53147U 22083R   22247.83334491 -.01132686  00000-0 -61797-1 0  9997,2 53147  53.2177 168.6527 0001541  45.5164 346.2412 15.16765304  1302,6893.761,94.939,516.689,514.564,0.0
53147.0,STARLINK-4094,PAYLOAD,2022-09-05 12:00:00,15.15159816,0.0001506,53.2175,165.6334,49.8076,22.2388,-0.064792,-0.01134099,0.0,0 STARLINK-4094,1 53147U 22083R   22248.50001157 -.01134099  00000-0 -64792-1 0  9990,2 53147  53.2175 165.6334 0001506  49.8076  22.2388 15.15159816  8431,6898.63,95.039,521.534,519.456,0.0
53147.0,STARLINK-4094,PAYLOAD,2022-09-05 14:00:01,15.14957362,0.0001585999999999,53.2174,165.2562,54.9695,111.8423,-0.064959,-0.01130773,0.0,0 STARLINK-4094,1 53147U 22083R   22248.58334491 -.01130773  00000-0 -64959-1 0  9998,2 53147  53.2174 165.2562 0001586  54.9695 111.8423 15.14957362  1306,6899.245,95.052,522.2040000000002,520.016,0.0
53147.0,STARLINK-4094,PAYLOAD,2022-09-05 22:00:00,15.14155002,0.0001744,53.2176,163.7506,49.4248,135.8421,-0.066512,-0.01131669,0.0,0 STARLINK-4094,1 53147U 22083R   22248.91667824 -.01131669  00000-0 -66512-1 0  9996,2 53147  53.2176 163.7506 0001744  49.4248 135.8421 15.14155002  1303,6901.682,95.103,524.751,522.3430000000002,0.0
53147.0,STARLINK-4094,PAYLOAD,2022-09-06 04:00:00,15.13552407,0.000154,53.2176,162.623,55.8898,52.5855,-0.067625,-0.01131152,0.0,0 STARLINK-4094,1 53147U 22083R   22249.16667824 -.01131152  00000-0 -67625-1 0  9997,2 53147  53.2176 162.6230 0001540  55.8898  52.5855 15.13552407  8538,6903.514,95.14,526.442,524.316,0.0
53147.0,STARLINK-4094,PAYLOAD,2022-09-06 14:00:01,15.12550159,0.0001646,53.2171,160.7418,51.7026,167.5822,-0.0696659999999999,-0.01132733,0.0,0 STARLINK-4094,1 53147U 22083R   22249.58334491 -.01132733  00000-0 -69666-1 0  9997,2 53147  53.2171 160.7418 0001646  51.7026 167.5822 15.12550159  1305,6906.563,95.203,529.565,527.2909999999998,0.0
53147.0,STARLINK-4094,PAYLOAD,2022-09-06 20:00:01,15.1194695,0.0001732,53.2176,159.61700000000005,48.9001,92.146,-0.070759,-0.01131332,0.0,0 STARLINK-4094,1 53147U 22083R   22249.83334491 -.01131332  00000-0 -70759-1 0  9994,2 53147  53.2176 159.6170 0001732  48.9001  92.1460 15.11946950  8630,6908.4,95.241,531.461,529.068,0.0
53147.0,STARLINK-4094,PAYLOAD,2022-09-06 22:00:00,15.1174551,0.0001672,53.2175,159.2426,52.3305,182.5152,-0.071062,-0.01129895,0.0,0 STARLINK-4094,1 53147U 22083R   22249.91667824 -.01129895  00000-0 -71062-1 0  9991,2 53147  53.2175 159.2426 0001672  52.3305 182.5152 15.11745510  1306,6909.014,95.254,532.034,529.7230000000002,0.0
53147.0,STARLINK-4094,PAYLOAD,2022-09-07 14:00:01,15.10140332,0.0001478,53.2172,156.2441,54.4018,208.6728,-0.074274,-0.01129331,0.0,0 STARLINK-4094,1 53147U 22083R   22250.58334491 -.01129331  00000-0 -74274-1 0  9990,2 53147  53.2172 156.2441 0001478  54.4018 208.6728 15.10140332  8749,6913.909000000002,95.355,536.7959999999998,534.752,0.0
53147.0,STARLINK-4094,PAYLOAD,2022-09-07 22:00:00,15.09222033,0.0001528,53.2174,154.7493,48.7969,226.9572,-0.032329,-0.00490966,0.0,0 STARLINK-4094,1 53147U 22083R   22250.91667824 -.00490966  00000-0 -32329-1 0  9995,2 53147  53.2174 154.7493 0001528  48.7969 226.9572 15.09222033  8790,6916.7130000000025,95.413,539.635,537.521,0.0
53147.0,STARLINK-4094,PAYLOAD,2022-09-08 06:00:00,15.08837624,0.0001509,53.2171,153.2536,56.8278,230.7643,-6.564199999999999e-05,-1.332e-05,0.0,0 STARLINK-4094,1 53147U 22083R   22251.25001157 -.00001332  00000-0 -65642-4 0  9996,2 53147  53.2171 153.2536 0001509  56.8278 230.7643 15.08837624  8846,6917.888000000001,95.438,540.797,538.7090000000002,0.0
53147.0,STARLINK-4094,PAYLOAD,2022-09-08 14:00:01,15.08844845,0.000165,53.2145,151.7464,57.7169,241.452,0.0034890999999999,0.00055688,0.0,0 STARLINK-4094,1 53147U 22083R   22251.58334491  .00055688  00000-0  34891-2 0  9993,2 53147  53.2145 151.7464 0001650  57.7169 241.4520 15.08844845  1306,6917.866,95.437,540.872,538.589,0.0
53147.0,STARLINK-4094,PAYLOAD,2022-09-08 22:00:00,15.08918966,0.0001689,53.2147,150.2511,53.8262,256.9633,-0.007522,-0.00118298,0.0,0 STARLINK-4094,1 53147U 22083R   22251.91667824 -.00118298  00000-0 -75220-2 0  9999,2 53147  53.2147 150.2511 0001689  53.8262 256.9633 15.08918966  1300,6917.639,95.433,540.672,538.336,0.0
53147.0,STARLINK-4094,PAYLOAD,2022-09-09 04:00:00,15.08818416,0.0001749,53.2148,149.1296,48.146,181.3906,0.0023651,0.00037531,0.0,0 STARLINK-4094,1 53147U 22083R   22252.16667824  .00037531  00000-0  23651-2 0  9996,2 53147  53.2148 149.1296 0001749  48.1460 181.3906 15.08818416  8986,6917.946,95.439,541.021,538.601,0.0
53147.0,STARLINK-4094,PAYLOAD,2022-09-09 14:00:01,15.08792728,0.0001629999999999,53.2149,147.257,57.2481,276.7853,0.0032678,0.00052036,0.0,0 STARLINK-4094,1 53147U 22083R   22252.58334491  .00052036  00000-0  32678-2 0  9999,2 53147  53.2149 147.2570 0001630  57.2481 276.7853 15.08792728  1300,6918.025,95.441,541.018,538.762,0.0
53147.0,STARLINK-4094,PAYLOAD,2022-09-09 22:00:00,15.08836067,0.0001766999999999,53.215,145.7619,54.9609,290.6319,-0.00076868,-0.000125,0.0,0 STARLINK-4094,1 53147U 22083R   22252.91667824 -.00012500  00000-0 -76868-3 0  9999,2 53147  53.2150 145.7619 0001767  54.9609 290.6319 15.08836067  1303,6917.892,95.438,540.98,538.535,0.0
53147.0,STARLINK-4094,PAYLOAD,2022-09-10 04:00:00,15.08808934,0.0001821,53.215,144.6404,50.7056,213.5726,0.0033978,0.00054158,0.0,0 STARLINK-4094,1 53147U 22083R   22253.16667824  .00054158  00000-0  33978-2 0  9994,2 53147  53.2150 144.6404 0001821  50.7056 213.5726 15.08808934  9131,6917.975,95.44,541.1,538.581,0.0
53147.0,STARLINK-4094,PAYLOAD,2022-09-10 12:00:00,15.08827653,0.0001621999999999,53.2151,143.1422,55.6255,220.2402,-0.00055824,-9.158e-05,0.0,0 STARLINK-4094,1 53147U 22083R   22253.50001157 -.00009158  00000-0 -55824-3 0  9990,2 53147  53.2151 143.1422 0001622  55.6255 220.2402 15.08827653  9180,6917.918000000002,95.438,540.905,538.661,0.0
